[{"OBJECT_NAME":"JILIN-1 GAOFEN 2B","OBJECT_ID":"2019-086A","EPOCH":"2026-03-09T22:43:01.900128","MEAN_MOTION":15.19449314,"ECCENTRICITY":0.001314,"INCLINATION":97.496,"RA_OF_ASC_NODE":141.6146,"ARG_OF_PERICENTER":308.9475,"MEAN_ANOMALY":51.0588,"EPHEMERIS_TYPE":0,"CLASSIFICATION_TYPE":"U","NORAD_CAT_ID":44836,"ELEMENT_SET_NO":999,"REV_AT_EPOCH":34541,"BSTAR":0.00041762488,"MEAN_MOTION_DOT":8.807e-5,"MEAN_MOTION_DDOT":0},{"OBJECT_NAME":"NOAA 16 DEB","OBJECT_ID":"2000-055RD","EPOCH":"2026-03-08T14:49:38.721792","MEAN_MOTION":15.14089507,"ECCENTRICITY":0.00084032,"INCLINATION":98.9038,"RA_OF_ASC_NODE":208.7699,"ARG_OF_PERICENTER":346.4163,"MEAN_ANOMALY":13.6837,"EPHEMERIS_TYPE":0,"CLASSIFICATION_TYPE":"U","NORAD_CAT_ID":42361,"ELEMENT_SET_NO":999,"REV_AT_EPOCH":52359,"BSTAR":0.022314151,"MEAN_MOTION_DOT":0.0043103,"MEAN_MOTION_DDOT":0}]
